stk.v.8.0

BEGIN Ephemeris

NumberOfEphemerisPoints 8641

ScenarioEpoch           1 Dec 2016 00:00:00.000000000

InterpolationMethod     Lagrange

InterpolationSamplesM1      7

CentralBody             Earth

CoordinateSystem        J2000 

EphemerisTimePosVel

6.11200000000000e+004 2.31589946011951e+007 -3.77014752804141e+008 -1.29936960757278e+008 1.17213476541458e+003 -9.61636985279545e+002 5.46379162360613e+002
6.11300000000000e+004 2.31707272359668e+007 -3.77024375513722e+008 -1.29931497790132e+008 1.17439370803395e+003 -9.62904847234457e+002 5.46213586434287e+002
6.11400000000000e+004 2.31824825058540e+007 -3.77034010899379e+008 -1.29926036499233e+008 1.17666179861606e+003 -9.64172199700045e+002 5.46043905758612e+002
6.11500000000000e+004 2.31942605025680e+007 -3.77043658955907e+008 -1.29920576925808e+008 1.17893907927513e+003 -9.65439014173629e+002 5.45870085931232e+002
6.11600000000000e+004 2.32060613182194e+007 -3.77053319677764e+008 -1.29915119111423e+008 1.18122559227672e+003 -9.66705261764224e+002 5.45692092256660e+002
6.11700000000000e+004 2.32178850453344e+007 -3.77062993059152e+008 -1.29909663097990e+008 1.18352138003674e+003 -9.67970913187860e+002 5.45509889743892e+002
6.11800000000000e+004 2.32297317768794e+007 -3.77072679093946e+008 -1.29904208927775e+008 1.18582648512044e+003 -9.69235938762821e+002 5.45323443104016e+002
6.11900000000000e+004 2.32416016062396e+007 -3.77082377775737e+008 -1.29898756643397e+008 1.18814095024131e+003 -9.70500308404818e+002 5.45132716747788e+002
6.12000000000000e+004 2.32534946272356e+007 -3.77092089097829e+008 -1.29893306287825e+008 1.19046481825999e+003 -9.71763991622144e+002 5.44937674783224e+002
6.12100000000000e+004 2.32654109340947e+007 -3.77101813053202e+008 -1.29887857904402e+008 1.19279813218315e+003 -9.73026957510734e+002 5.44738281013148e+002
6.12200000000000e+004 2.32773506215128e+007 -3.77111549634482e+008 -1.29882411536831e+008 1.19514093516220e+003 -9.74289174749204e+002 5.44534498932756e+002
6.12300000000000e+004 2.32893137845801e+007 -3.77121298834085e+008 -1.29876967229177e+008 1.19749327049212e+003 -9.75550611593817e+002 5.44326291727146e+002
6.12400000000000e+004 2.33013005188586e+007 -3.77131060644001e+008 -1.29871525025878e+008 1.19985518161009e+003 -9.76811235873398e+002 5.44113622268847e+002
6.12500000000000e+004 2.33133109202919e+007 -3.77140835055971e+008 -1.29866084971728e+008 1.20222671209419e+003 -9.78071014984194e+002 5.43896453115338e+002
6.12600000000000e+004 2.33253450853059e+007 -3.77150622061378e+008 -1.29860647111936e+008 1.20460790566193e+003 -9.79329915884678e+002 5.43674746506540e+002
6.12700000000000e+004 2.33374031107567e+007 -3.77160421651260e+008 -1.29855211492043e+008 1.20699880616886e+003 -9.80587905090282e+002 5.43448464362318e+002
6.12800000000000e+004 2.33494850939473e+007 -3.77170233816328e+008 -1.29849778158036e+008 1.20939945760700e+003 -9.81844948668102e+002 5.43217568279951e+002
6.12900000000000e+004 2.33615911325679e+007 -3.77180058546971e+008 -1.29844347156201e+008 1.21180990410327e+003 -9.83101012231527e+002 5.42982019531613e+002
6.13000000000000e+004 2.33737213248269e+007 -3.77189895833184e+008 -1.29838918533283e+008 1.21423018991790e+003 -9.84356060934796e+002 5.42741779061815e+002
6.13100000000000e+004 2.33858757693225e+007 -3.77199745664687e+008 -1.29833492336388e+008 1.21666035944272e+003 -9.85610059467523e+002 5.42496807484865e+002
6.13200000000000e+004 2.33980545651130e+007 -3.77209608030755e+008 -1.29828068613026e+008 1.21910045719941e+003 -9.86862972049150e+002 5.42247065082295e+002
6.13300000000000e+004 2.34102578117098e+007 -3.77219482920378e+008 -1.29822647411121e+008 1.22155052783768e+003 -9.88114762423345e+002 5.41992511800293e+002
6.13400000000000e+004 2.34224856090716e+007 -3.77229370322134e+008 -1.29817228778960e+008 1.22401061613347e+003 -9.89365393852326e+002 5.41733107247118e+002
6.13500000000000e+004 2.34347380575828e+007 -3.77239270224280e+008 -1.29811812765275e+008 1.22648076698692e+003 -9.90614829111145e+002 5.41468810690504e+002
6.13600000000000e+004 2.34470152581076e+007 -3.77249182614620e+008 -1.29806399419192e+008 1.22896102542046e+003 -9.91863030481891e+002 5.41199581055060e+002
6.13700000000000e+004 2.34593173119383e+007 -3.77259107480638e+008 -1.29800988790248e+008 1.23145143657668e+003 -9.93109959747869e+002 5.40925376919661e+002
6.13800000000000e+004 2.34716443208344e+007 -3.77269044809436e+008 -1.29795580928373e+008 1.23395204571627e+003 -9.94355578187642e+002 5.40646156514819e+002
6.13900000000000e+004 2.34839963870088e+007 -3.77278994587695e+008 -1.29790175883972e+008 1.23646289821575e+003 -9.95599846569106e+002 5.40361877720066e+002
6.14000000000000e+004 2.34963736130979e+007 -3.77288956801731e+008 -1.29784773707826e+008 1.23898403956527e+003 -9.96842725143434e+002 5.40072498061307e+002
6.14100000000000e+004 2.35087761022472e+007 -3.77298931437445e+008 -1.29779374451157e+008 1.24151551536622e+003 -9.98084173638978e+002 5.39777974708183e+002
6.14200000000000e+004 2.35212039580129e+007 -3.77308918480301e+008 -1.29773978165618e+008 1.24405737132883e+003 -9.99324151255113e+002 5.39478264471416e+002
6.14300000000000e+004 2.35336572844395e+007 -3.77318917915431e+008 -1.29768584903304e+008 1.24660965326972e+003 -1.00056261665601e+003 5.39173323800151e+002
6.14400000000000e+004 2.35461361859916e+007 -3.77328929727442e+008 -1.29763194716729e+008 1.24917240710928e+003 -1.00179952796436e+003 5.38863108779294e+002
6.14500000000000e+004 2.35586407676399e+007 -3.77338953900658e+008 -1.29757807658852e+008 1.25174567886905e+003 -1.00303484275499e+003 5.38547575126841e+002
6.14600000000000e+004 2.35711711347849e+007 -3.77348990418854e+008 -1.29752423783097e+008 1.25432951466904e+003 -1.00426851804849e+003 5.38226678191197e+002
6.14700000000000e+004 2.35837273933040e+007 -3.77359039265401e+008 -1.29747043143330e+008 1.25692396072486e+003 -1.00550051030468e+003 5.37900372948502e+002
6.14800000000000e+004 2.35963096495299e+007 -3.77369100423295e+008 -1.29741665793822e+008 1.25952906334489e+003 -1.00673077541612e+003 5.37568613999940e+002
6.14900000000000e+004 2.36089180102508e+007 -3.77379173875027e+008 -1.29736291789377e+008 1.26214486892729e+003 -1.00795926870142e+003 5.37231355569055e+002
6.15000000000000e+004 2.36215525827427e+007 -3.77389259602621e+008 -1.29730921185191e+008 1.26477142395696e+003 -1.00918594489863e+003 5.36888551499047e+002
6.15100000000000e+004 2.36342134747312e+007 -3.77399357587694e+008 -1.29725554036983e+008 1.26740877500237e+003 -1.01041075815848e+003 5.36540155250090e+002
6.15200000000000e+004 2.36469007943928e+007 -3.77409467811414e+008 -1.29720190400878e+008 1.27005696871237e+003 -1.01163366203751e+003 5.36186119896621e+002
6.15300000000000e+004 2.36596146504016e+007 -3.77419590254422e+008 -1.29714830333535e+008 1.27271605181283e+003 -1.01285460949127e+003 5.35826398124645e+002
6.15400000000000e+004 2.36723551518839e+007 -3.77429724896917e+008 -1.29709473892040e+008 1.27538607110327e+003 -1.01407355286731e+003 5.35460942229030e+002
6.15500000000000e+004 2.36851224084420e+007 -3.77439871718631e+008 -1.29704121133961e+008 1.27806707345330e+003 -1.01529044389820e+003 5.35089704110808e+002
6.15600000000000e+004 2.36979165301320e+007 -3.77450030698782e+008 -1.29698772117392e+008 1.28075910579906e+003 -1.01650523369442e+003 5.34712635274467e+002
6.15700000000000e+004 2.37107376274873e+007 -3.77460201816126e+008 -1.29693426900862e+008 1.28346221513946e+003 -1.01771787273723e+003 5.34329686825252e+002
6.15800000000000e+004 2.37235858115192e+007 -3.77470385048905e+008 -1.29688085543413e+008 1.28617644853245e+003 -1.01892831087144e+003 5.33940809466463e+002
6.15900000000000e+004 2.37364611936946e+007 -3.77480580374841e+008 -1.29682748104599e+008 1.28890185309106e+003 -1.02013649729812e+003 5.33545953496752e+002
6.16000000000000e+004 2.37493638859824e+007 -3.77490787771175e+008 -1.29677414644440e+008 1.29163847597939e+003 -1.02134238056723e+003 5.33145068807434e+002
6.16100000000000e+004 2.37622940007697e+007 -3.77501007214617e+008 -1.29672085223490e+008 1.29438636440851e+003 -1.02254590857024e+003 5.32738104879782e+002
6.16200000000000e+004 2.37752516509774e+007 -3.77511238681333e+008 -1.29666759902783e+008 1.29714556563223e+003 -1.02374702853258e+003 5.32325010782350e+002
6.16300000000000e+004 2.37882369499606e+007 -3.77521482146978e+008 -1.29661438743876e+008 1.29991612694275e+003 -1.02494568700609e+003 5.31905735168276e+002
6.16400000000000e+004 2.38012500115553e+007 -3.77531737586681e+008 -1.29656121808851e+008 1.30269809566623e+003 -1.02614182986140e+003 5.31480226272620e+002
6.16500000000000e+004 2.38142909500709e+007 -3.77542004974982e+008 -1.29650809160308e+008 1.30549151915819e+003 -1.02733540228023e+003 5.31048431909668e+002
6.16600000000000e+004 2.38273598802903e+007 -3.77552284285976e+008 -1.29645500861335e+008 1.30829644479888e+003 -1.02852634874759e+003 5.30610299470289e+002
6.16700000000000e+004 2.38404569174632e+007 -3.77562575493046e+008 -1.29640196975616e+008 1.31111291998843e+003 -1.02971461304394e+003 5.30165775919267e+002
6.16800000000000e+004 2.38535821773508e+007 -3.77572878569102e+008 -1.29634897567305e+008 1.31394099214195e+003 -1.03090013823733e+003 5.29714807792654e+002
6.16900000000000e+004 2.38667357761280e+007 -3.77583193486481e+008 -1.29629602701127e+008 1.31678070868449e+003 -1.03208286667534e+003 5.29257341195138e+002
6.17000000000000e+004 2.38799178304972e+007 -3.77593520216923e+008 -1.29624312442329e+008 1.31963211704583e+003 -1.03326273997706e+003 5.28793321797410e+002
6.17100000000000e+004 2.38931284576046e+007 -3.77603858731551e+008 -1.29619026856713e+008 1.32249526465525e+003 -1.03443969902500e+003 5.28322694833553e+002
6.17200000000000e+004 2.39063677750860e+007 -3.77614209000971e+008 -1.29613746010630e+008 1.32537019893599e+003 -1.03561368395684e+003 5.27845405098441e+002
END Ephemeris
